{
    "type": "FeatureCollection",
    "features": [
        {
            "type": "Feature",
            "properties": {
                "GID_2": "IDN.30.1_1",
                "GID_0": "IDN",
                "COUNTRY": "Indonesia",
                "GID_1": "IDN.30_1",
                "NAME_1": "SumateraBarat",
                "NL_NAME_1": "NA",
                "NAME_2": "Agam",
                "VARNAME_2": "NA",
                "NL_NAME_2": "NA",
                "TYPE_2": "Kabupaten",
                "ENGTYPE_2": "Regency",
                "CC_2": "1307",
                "HASC_2": "ID.SB.AG",
                "label": "Kabupaten Agam",
                "slug": "kabupaten-agam"
            },
            "geometry": {
                "type": "MultiPolygon",
                "coordinates": [
                    [
                        [
                            [100.3766, -0.1378],
                            [100.3785, -0.1457],
                            [100.3878, -0.1492],
                            [100.3945, -0.1494],
                            [100.3963, -0.1567],
                            [100.3997, -0.1607],
                            [100.4156, -0.1637],
                            [100.4398, -0.1723],
                            [100.4425, -0.1759],
                            [100.4423, -0.1936],
                            [100.4491, -0.2046],
                            [100.4622, -0.2099],
                            [100.4677, -0.2149],
                            [100.4695, -0.2193],
                            [100.4811, -0.2228],
                            [100.4851, -0.2271],
                            [100.4994, -0.2344],
                            [100.5084, -0.2416],
                            [100.5173, -0.2443],
                            [100.5212, -0.2484],
                            [100.5257, -0.2495],
                            [100.5271, -0.2485],
                            [100.5355, -0.2532],
                            [100.5396, -0.2591],
                            [100.5325, -0.2772],
                            [100.5356, -0.2805],
                            [100.5309, -0.2825],
                            [100.5254, -0.2903],
                            [100.5179, -0.2951],
                            [100.5096, -0.3034],
                            [100.5051, -0.3128],
                            [100.5038, -0.3214],
                            [100.4954, -0.3346],
                            [100.495, -0.3412],
                            [100.4876, -0.3478],
                            [100.4814, -0.3566],
                            [100.4787, -0.3749],
                            [100.4731, -0.3809],
                            [100.4693, -0.3903],
                            [100.4519, -0.392],
                            [100.4377, -0.3892],
                            [100.4181, -0.392],
                            [100.3979, -0.3848],
                            [100.3811, -0.3839],
                            [100.37, -0.3899],
                            [100.3662, -0.3891],
                            [100.3634, -0.3904],
                            [100.3579, -0.389],
                            [100.353, -0.3915],
                            [100.3333, -0.3921],
                            [100.3319, -0.394],
                            [100.3319, -0.403],
                            [100.3234, -0.4107],
                            [100.3157, -0.4292],
                            [100.3123, -0.4291],
                            [100.3064, -0.4321],
                            [100.2878, -0.4564],
                            [100.2853, -0.4618],
                            [100.2833, -0.4614],
                            [100.2721, -0.4674],
                            [100.2715, -0.4693],
                            [100.2645, -0.4716],
                            [100.2465, -0.4676],
                            [100.2462, -0.4598],
                            [100.2384, -0.4485],
                            [100.2266, -0.4458],
                            [100.223, -0.4383],
                            [100.2154, -0.4316],
                            [100.2185, -0.4203],
                            [100.2169, -0.4149],
                            [100.2139, -0.4135],
                            [100.2096, -0.4147],
                            [100.2038, -0.4133],
                            [100.1993, -0.4155],
                            [100.1884, -0.4144],
                            [100.1762, -0.4083],
                            [100.1672, -0.3988],
                            [100.1625, -0.3962],
                            [100.1577, -0.3903],
                            [100.1559, -0.3847],
                            [100.1553, -0.3769],
                            [100.1585, -0.3601],
                            [100.1557, -0.357],
                            [100.1508, -0.3423],
                            [100.1364, -0.32],
                            [100.1311, -0.3163],
                            [100.1289, -0.3165],
                            [100.1243, -0.3244],
                            [100.1216, -0.3249],
                            [100.1199, -0.3284],
                            [100.1152, -0.3312],
                            [100.1012, -0.3326],
                            [100.0961, -0.3298],
                            [100.0934, -0.326],
                            [100.0873, -0.3246],
                            [100.0667, -0.3293],
                            [100.0612, -0.3352],
                            [100.0569, -0.3485],
                            [100.0481, -0.3559],
                            [100.0493, -0.3609],
                            [100.0483, -0.3635],
                            [100.0458, -0.3643],
                            [100.0348, -0.3626],
                            [100.0291, -0.3652],
                            [100.0231, -0.3621],
                            [100.0178, -0.3637],
                            [100.0006, -0.3582],
                            [99.9933, -0.3597],
                            [99.988, -0.3635],
                            [99.9853, -0.3694],
                            [99.9878, -0.3743],
                            [99.9898, -0.3746],
                            [99.991, -0.3791],
                            [99.9946, -0.3812],
                            [99.9996, -0.3923],
                            [99.9999, -0.3978],
                            [99.9956, -0.401],
                            [99.9861, -0.3979],
                            [99.9829, -0.3992],
                            [99.9804, -0.4033],
                            [99.9795, -0.4146],
                            [99.9778, -0.4168],
                            [99.97, -0.4177],
                            [99.9626, -0.4326],
                            [99.9467, -0.4193],
                            [99.9321, -0.4096],
                            [99.9184, -0.4014],
                            [99.9136, -0.4006],
                            [99.9148, -0.3975],
                            [99.9178, -0.3967],
                            [99.9184, -0.3937],
                            [99.9156, -0.3811],
                            [99.905, -0.3645],
                            [99.8875, -0.3465],
                            [99.8881, -0.3439],
                            [99.8851, -0.3442],
                            [99.8584, -0.3242],
                            [99.8343, -0.3113],
                            [99.8196, -0.3006],
                            [99.8089, -0.2797],
                            [99.804, -0.2639],
                            [99.8019, -0.2527],
                            [99.8047, -0.2457],
                            [99.8051, -0.239],
                            [99.7982, -0.2192],
                            [99.7773, -0.1818],
                            [99.7679, -0.1709],
                            [99.8045, -0.1762],
                            [99.8067, -0.1759],
                            [99.8097, -0.1723],
                            [99.8195, -0.1684],
                            [99.8315, -0.1691],
                            [99.8331, -0.1657],
                            [99.8378, -0.163],
                            [99.8422, -0.1636],
                            [99.8453, -0.1685],
                            [99.8472, -0.1677],
                            [99.8483, -0.1631],
                            [99.8511, -0.1618],
                            [99.8591, -0.163],
                            [99.8727, -0.1595],
                            [99.8849, -0.162],
                            [99.898, -0.1572],
                            [99.9018, -0.1607],
                            [99.9082, -0.1583],
                            [99.9147, -0.1627],
                            [99.9186, -0.156],
                            [99.933, -0.1486],
                            [99.9399, -0.1505],
                            [99.9418, -0.1458],
                            [99.9438, -0.1453],
                            [99.9484, -0.1488],
                            [99.951, -0.1486],
                            [99.9609, -0.1435],
                            [99.9639, -0.14],
                            [99.9693, -0.1384],
                            [99.9809, -0.1387],
                            [99.9853, -0.1461],
                            [99.9879, -0.1452],
                            [99.9875, -0.1413],
                            [99.9892, -0.139],
                            [99.992, -0.1395],
                            [99.9946, -0.1425],
                            [100.0011, -0.1438],
                            [100.0013, -0.1386],
                            [100.0048, -0.1348],
                            [100.0045, -0.1285],
                            [100.0082, -0.1231],
                            [100.0134, -0.119],
                            [100.0162, -0.1035],
                            [100.0153, -0.0977],
                            [100.0226, -0.0937],
                            [100.0318, -0.0918],
                            [100.0363, -0.0837],
                            [100.0382, -0.0833],
                            [100.0374, -0.0815],
                            [100.0436, -0.0831],
                            [100.0506, -0.0812],
                            [100.0614, -0.0843],
                            [100.0708, -0.0845],
                            [100.0763, -0.0838],
                            [100.08, -0.0809],
                            [100.0859, -0.0808],
                            [100.0903, -0.0779],
                            [100.0971, -0.0798],
                            [100.1033, -0.0759],
                            [100.107, -0.0758],
                            [100.114, -0.0794],
                            [100.1153, -0.0848],
                            [100.1216, -0.0866],
                            [100.1234, -0.0945],
                            [100.1347, -0.0945],
                            [100.1404, -0.1024],
                            [100.1503, -0.1019],
                            [100.1601, -0.1076],
                            [100.1661, -0.1],
                            [100.1759, -0.0923],
                            [100.1877, -0.0932],
                            [100.1885, -0.0911],
                            [100.2368, -0.0625],
                            [100.244, -0.0652],
                            [100.2495, -0.0658],
                            [100.2513, -0.0646],
                            [100.2601, -0.0573],
                            [100.2614, -0.0536],
                            [100.261, -0.0418],
                            [100.2644, -0.0347],
                            [100.3018, -0.0556],
                            [100.3066, -0.0548],
                            [100.3168, -0.0461],
                            [100.3203, -0.0559],
                            [100.3252, -0.0601],
                            [100.3321, -0.0767],
                            [100.3554, -0.0859],
                            [100.3569, -0.0911],
                            [100.3516, -0.0937],
                            [100.3578, -0.0962],
                            [100.3618, -0.1026],
                            [100.3618, -0.1054],
                            [100.3718, -0.1129],
                            [100.3744, -0.1202],
                            [100.3729, -0.1277],
                            [100.3766, -0.1378]
                        ],
                        [
                            [100.333, -0.2798],
                            [100.3346, -0.2807],
                            [100.334, -0.2831],
                            [100.3361, -0.2838],
                            [100.3357, -0.2853],
                            [100.3416, -0.2919],
                            [100.3428, -0.2975],
                            [100.3454, -0.296],
                            [100.3474, -0.3004],
                            [100.3523, -0.3029],
                            [100.355, -0.3024],
                            [100.3587, -0.3063],
                            [100.3597, -0.3105],
                            [100.3647, -0.3121],
                            [100.3647, -0.3163],
                            [100.3709, -0.3223],
                            [100.377, -0.322],
                            [100.3952, -0.3258],
                            [100.4013, -0.3227],
                            [100.4056, -0.318],
                            [100.3985, -0.3071],
                            [100.3966, -0.3066],
                            [100.3975, -0.2966],
                            [100.396, -0.2904],
                            [100.3926, -0.2908],
                            [100.3893, -0.285],
                            [100.3868, -0.2836],
                            [100.3846, -0.2829],
                            [100.3816, -0.2852],
                            [100.3748, -0.2865],
                            [100.3685, -0.2811],
                            [100.366, -0.2832],
                            [100.3581, -0.2846],
                            [100.3489, -0.2759],
                            [100.3367, -0.2727],
                            [100.3379, -0.2762],
                            [100.3349, -0.2761],
                            [100.333, -0.2798]
                        ]
                    ],
                    [
                        [
                            [99.9016, -0.4192],
                            [99.9011, -0.4216],
                            [99.8992, -0.4212],
                            [99.8995, -0.4192],
                            [99.9016, -0.4192]
                        ]
                    ],
                    [
                        [
                            [99.9019, -0.4099],
                            [99.902, -0.4079],
                            [99.9036, -0.4084],
                            [99.9037, -0.4105],
                            [99.9019, -0.4099]
                        ]
                    ]
                ]
            }
        },
        {
            "type": "Feature",
            "properties": {
                "GID_2": "IDN.30.2_1",
                "GID_0": "IDN",
                "COUNTRY": "Indonesia",
                "GID_1": "IDN.30_1",
                "NAME_1": "SumateraBarat",
                "NL_NAME_1": "NA",
                "NAME_2": "Bukittinggi",
                "VARNAME_2": "NA",
                "NL_NAME_2": "NA",
                "TYPE_2": "Kota",
                "ENGTYPE_2": "City",
                "CC_2": "1375",
                "HASC_2": "ID.SB.BU",
                "label": "Kota Bukittinggi",
                "slug": "kota-bukittinggi"
            },
            "geometry": {
                "type": "MultiPolygon",
                "coordinates": [
                    [
                        [
                            [100.3906, -0.3252],
                            [100.377, -0.322],
                            [100.3709, -0.3223],
                            [100.3647, -0.3163],
                            [100.3647, -0.3121],
                            [100.3597, -0.3105],
                            [100.3587, -0.3063],
                            [100.355, -0.3024],
                            [100.3523, -0.3029],
                            [100.3474, -0.3004],
                            [100.3454, -0.296],
                            [100.3428, -0.2975],
                            [100.3416, -0.2919],
                            [100.3357, -0.2853],
                            [100.3361, -0.2838],
                            [100.334, -0.2831],
                            [100.3346, -0.2807],
                            [100.3325, -0.2803],
                            [100.3349, -0.2761],
                            [100.3379, -0.2762],
                            [100.3366, -0.2728],
                            [100.3489, -0.2759],
                            [100.3581, -0.2846],
                            [100.366, -0.2832],
                            [100.3685, -0.2811],
                            [100.3748, -0.2865],
                            [100.3816, -0.2852],
                            [100.3846, -0.2829],
                            [100.3893, -0.285],
                            [100.3926, -0.2908],
                            [100.396, -0.2904],
                            [100.3975, -0.2966],
                            [100.3966, -0.3066],
                            [100.3985, -0.3071],
                            [100.4056, -0.318],
                            [100.4013, -0.3227],
                            [100.3952, -0.3258],
                            [100.3906, -0.3252]
                        ]
                    ]
                ]
            }
        },
        {
            "type": "Feature",
            "properties": {
                "GID_2": "IDN.30.8_1",
                "GID_0": "IDN",
                "COUNTRY": "Indonesia",
                "GID_1": "IDN.30_1",
                "NAME_1": "SumateraBarat",
                "NL_NAME_1": "NA",
                "NAME_2": "PadangPanjang",
                "VARNAME_2": "NA",
                "NL_NAME_2": "NA",
                "TYPE_2": "Kota",
                "ENGTYPE_2": "City",
                "CC_2": "1374",
                "HASC_2": "ID.SB.PJ",
                "label": "Kota Padang Panjang",
                "slug": "kota-padang-panjang"
            },
            "geometry": {
                "type": "MultiPolygon",
                "coordinates": [
                    [
                        [
                            [100.4327, -0.4732],
                            [100.4345, -0.4782],
                            [100.4328, -0.4891],
                            [100.4306, -0.4865],
                            [100.4236, -0.4858],
                            [100.4221, -0.4833],
                            [100.4207, -0.4852],
                            [100.4124, -0.4836],
                            [100.4078, -0.4844],
                            [100.4058, -0.4802],
                            [100.4042, -0.4802],
                            [100.4065, -0.4852],
                            [100.3801, -0.4856],
                            [100.3678, -0.479],
                            [100.3663, -0.4766],
                            [100.3703, -0.4733],
                            [100.3714, -0.4687],
                            [100.3747, -0.467],
                            [100.3749, -0.464],
                            [100.3765, -0.4643],
                            [100.3776, -0.4621],
                            [100.3845, -0.4593],
                            [100.3876, -0.4601],
                            [100.3896, -0.4584],
                            [100.3901, -0.4602],
                            [100.3909, -0.4589],
                            [100.3961, -0.4601],
                            [100.3968, -0.4553],
                            [100.3954, -0.454],
                            [100.3965, -0.4509],
                            [100.3989, -0.45],
                            [100.4042, -0.4516],
                            [100.4044, -0.455],
                            [100.4077, -0.4556],
                            [100.4089, -0.4593],
                            [100.4119, -0.4546],
                            [100.4249, -0.4556],
                            [100.4258, -0.4596],
                            [100.4295, -0.4601],
                            [100.4325, -0.4628],
                            [100.4363, -0.4696],
                            [100.4357, -0.4722],
                            [100.4327, -0.4732]
                        ]
                    ]
                ]
            }
        },
        {
            "type": "Feature",
            "properties": {
                "GID_2": "IDN.30.13_1",
                "GID_0": "IDN",
                "COUNTRY": "Indonesia",
                "GID_1": "IDN.30_1",
                "NAME_1": "SumateraBarat",
                "NL_NAME_1": "NA",
                "NAME_2": "Pasaman",
                "VARNAME_2": "NA",
                "NL_NAME_2": "NA",
                "TYPE_2": "Kabupaten",
                "ENGTYPE_2": "Regency",
                "CC_2": "1309",
                "HASC_2": "ID.SB.PM",
                "label": "Kabupaten Pasaman",
                "slug": "kabupaten-pasaman"
            },
            "geometry": {
                "type": "MultiPolygon",
                "coordinates": [
                    [
                        [
                            [100.1646, -0.1018],
                            [100.1601, -0.1076],
                            [100.1503, -0.1019],
                            [100.1404, -0.1024],
                            [100.1347, -0.0945],
                            [100.1267, -0.0953],
                            [100.1225, -0.0938],
                            [100.1216, -0.0866],
                            [100.1153, -0.0848],
                            [100.114, -0.0794],
                            [100.1056, -0.0755],
                            [100.0992, -0.0794],
                            [100.0943, -0.0797],
                            [100.0903, -0.0779],
                            [100.0859, -0.0808],
                            [100.08, -0.0809],
                            [100.0763, -0.0838],
                            [100.0708, -0.0845],
                            [100.0614, -0.0843],
                            [100.0506, -0.0812],
                            [100.0436, -0.0831],
                            [100.0374, -0.0815],
                            [100.0336, -0.0679],
                            [100.0369, -0.0664],
                            [100.0361, -0.0635],
                            [100.0335, -0.0605],
                            [100.0315, -0.0631],
                            [100.0307, -0.0582],
                            [100.0344, -0.0515],
                            [100.0366, -0.0509],
                            [100.0357, -0.0467],
                            [100.0381, -0.0478],
                            [100.0434, -0.0422],
                            [100.0471, -0.0436],
                            [100.0476, -0.0326],
                            [100.0454, -0.0294],
                            [100.0418, -0.0279],
                            [100.0402, -0.0246],
                            [100.0361, -0.0243],
                            [100.0253, -0.0154],
                            [100.0204, -0.0149],
                            [100.0152, -0.0071],
                            [100.0153, -0.0022],
                            [100.0107, 0.0065],
                            [100.003, 0.0073],
                            [99.9957, 0.0119],
                            [99.9837, 0.0278],
                            [99.9758, 0.0301],
                            [99.9659, 0.0473],
                            [99.9617, 0.0508],
                            [99.9589, 0.0617],
                            [99.9668, 0.0647],
                            [99.9815, 0.0747],
                            [99.9868, 0.0838],
                            [99.9943, 0.089],
                            [99.993, 0.0893],
                            [99.9941, 0.0958],
                            [99.9999, 0.1023],
                            [100.0121, 0.1308],
                            [100.0124, 0.1393],
                            [100.0165, 0.1556],
                            [100.0137, 0.1632],
                            [100.0145, 0.1698],
                            [100.0119, 0.1765],
                            [100.0107, 0.1875],
                            [100.0138, 0.1963],
                            [100.0251, 0.2148],
                            [100.0295, 0.2263],
                            [100.0308, 0.2359],
                            [100.0271, 0.2567],
                            [100.0154, 0.2622],
                            [100.0129, 0.275],
                            [99.9983, 0.2772],
                            [99.9923, 0.2802],
                            [99.9902, 0.2829],
                            [99.9817, 0.2774],
                            [99.968, 0.2776],
                            [99.9676, 0.2812],
                            [99.9634, 0.2825],
                            [99.9631, 0.2848],
                            [99.9594, 0.2855],
                            [99.9598, 0.287],
                            [99.9555, 0.2867],
                            [99.9514, 0.2919],
                            [99.9335, 0.2937],
                            [99.9328, 0.2962],
                            [99.9288, 0.2972],
                            [99.928, 0.2988],
                            [99.9192, 0.3006],
                            [99.9136, 0.304],
                            [99.8935, 0.304],
                            [99.8668, 0.2916],
                            [99.8598, 0.2919],
                            [99.855, 0.2942],
                            [99.8532, 0.298],
                            [99.8477, 0.3029],
                            [99.8249, 0.3077],
                            [99.8219, 0.304],
                            [99.8108, 0.2996],
                            [99.7952, 0.2983],
                            [99.7907, 0.3019],
                            [99.7887, 0.3186],
                            [99.7873, 0.3206],
                            [99.7818, 0.3205],
                            [99.7684, 0.3099],
                            [99.7614, 0.3133],
                            [99.7547, 0.32],
                            [99.7524, 0.332],
                            [99.7537, 0.3359],
                            [99.7602, 0.346],
                            [99.7728, 0.3493],
                            [99.7768, 0.3586],
                            [99.7701, 0.3627],
                            [99.7682, 0.3674],
                            [99.7437, 0.3822],
                            [99.7435, 0.3856],
                            [99.7476, 0.3897],
                            [99.7501, 0.3973],
                            [99.7698, 0.3987],
                            [99.7744, 0.4015],
                            [99.7765, 0.4082],
                            [99.7763, 0.416],
                            [99.7782, 0.4187],
                            [99.7847, 0.4176],
                            [99.7947, 0.4123],
                            [99.8029, 0.4163],
                            [99.8152, 0.4134],
                            [99.8217, 0.4143],
                            [99.8254, 0.417],
                            [99.8305, 0.4279],
                            [99.8304, 0.4409],
                            [99.8203, 0.4605],
                            [99.8368, 0.4586],
                            [99.8494, 0.4699],
                            [99.8591, 0.4633],
                            [99.8634, 0.4649],
                            [99.8702, 0.4647],
                            [99.8761, 0.4686],
                            [99.8823, 0.4665],
                            [99.8929, 0.4705],
                            [99.9042, 0.4704],
                            [99.9174, 0.4816],
                            [99.9202, 0.4878],
                            [99.9364, 0.5035],
                            [99.9462, 0.5097],
                            [99.9552, 0.5104],
                            [99.9611, 0.5136],
                            [99.9596, 0.5161],
                            [99.952, 0.5205],
                            [99.9502, 0.5242],
                            [99.9564, 0.5308],
                            [99.9647, 0.5458],
                            [99.9649, 0.5544],
                            [99.9608, 0.5603],
                            [99.9598, 0.5695],
                            [99.9517, 0.5762],
                            [99.9408, 0.5928],
                            [99.9308, 0.5972],
                            [99.9272, 0.6042],
                            [99.9204, 0.6054],
                            [99.9233, 0.6153],
                            [99.9088, 0.6268],
                            [99.9096, 0.629],
                            [99.9251, 0.6312],
                            [99.9252, 0.6329],
                            [99.916, 0.6496],
                            [99.9166, 0.6548],
                            [99.9111, 0.6799],
                            [99.9047, 0.6806],
                            [99.8962, 0.6766],
                            [99.893, 0.6793],
                            [99.8888, 0.6868],
                            [99.8855, 0.6887],
                            [99.8531, 0.683],
                            [99.847, 0.685],
                            [99.8309, 0.6962],
                            [99.8342, 0.7013],
                            [99.8352, 0.709],
                            [99.8297, 0.7161],
                            [99.8253, 0.7359],
                            [99.8261, 0.7397],
                            [99.8305, 0.7442],
                            [99.834, 0.7514],
                            [99.8335, 0.7557],
                            [99.8348, 0.7575],
                            [99.8436, 0.7594],
                            [99.8456, 0.7622],
                            [99.8462, 0.7689],
                            [99.8438, 0.7721],
                            [99.8448, 0.776],
                            [99.8431, 0.7802],
                            [99.8468, 0.7911],
                            [99.8438, 0.7976],
                            [99.8459, 0.8077],
                            [99.8448, 0.8143],
                            [99.8375, 0.8209],
                            [99.8416, 0.8343],
                            [99.8412, 0.8512],
                            [99.8329, 0.8711],
                            [99.8309, 0.8805],
                            [99.834, 0.8867],
                            [99.8407, 0.8929],
                            [99.857, 0.8967],
                            [99.8663, 0.9065],
                            [99.8716, 0.9074],
                            [99.8793, 0.905],
                            [99.8818, 0.9017],
                            [99.8925, 0.8969],
                            [99.8984, 0.896],
                            [99.9008, 0.8931],
                            [99.9006, 0.891],
                            [99.9099, 0.887],
                            [99.9411, 0.8827],
                            [99.9517, 0.8793],
                            [99.9595, 0.8689],
                            [99.9608, 0.86],
                            [99.9675, 0.8507],
                            [99.9731, 0.8487],
                            [99.9763, 0.8499],
                            [99.9838, 0.845],
                            [99.9966, 0.8415],
                            [100.0021, 0.8435],
                            [100.01, 0.8403],
                            [100.0347, 0.8273],
                            [100.0744, 0.8012],
                            [100.1197, 0.7859],
                            [100.136, 0.7755],
                            [100.1697, 0.7647],
                            [100.1933, 0.7638],
                            [100.2005, 0.7447],
                            [100.2072, 0.7378],
                            [100.2132, 0.7356],
                            [100.2158, 0.7398],
                            [100.2205, 0.7418],
                            [100.2238, 0.7388],
                            [100.2321, 0.737],
                            [100.2399, 0.7332],
                            [100.2427, 0.6943],
                            [100.2408, 0.6793],
                            [100.2378, 0.6733],
                            [100.2158, 0.6631],
                            [100.2015, 0.6432],
                            [100.2013, 0.6409],
                            [100.1868, 0.6266],
                            [100.1783, 0.5895],
                            [100.1765, 0.5739],
                            [100.1798, 0.5659],
                            [100.1841, 0.561],
                            [100.1917, 0.56],
                            [100.1948, 0.5578],
                            [100.2001, 0.5599],
                            [100.2039, 0.5583],
                            [100.2156, 0.5581],
                            [100.2245, 0.5543],
                            [100.235, 0.5457],
                            [100.2381, 0.5394],
                            [100.233, 0.5432],
                            [100.2354, 0.539],
                            [100.235, 0.5361],
                            [100.2376, 0.5353],
                            [100.2315, 0.5313],
                            [100.2294, 0.5277],
                            [100.2161, 0.5207],
                            [100.2166, 0.5116],
                            [100.2216, 0.5029],
                            [100.2377, 0.4947],
                            [100.242, 0.4908],
                            [100.2424, 0.4858],
                            [100.2398, 0.4801],
                            [100.2373, 0.4788],
                            [100.2376, 0.4751],
                            [100.2462, 0.4642],
                            [100.25, 0.4559],
                            [100.2604, 0.4457],
                            [100.2562, 0.445],
                            [100.255, 0.442],
                            [100.2646, 0.4197],
                            [100.2737, 0.4076],
                            [100.2808, 0.4023],
                            [100.2882, 0.4002],
                            [100.2931, 0.3925],
                            [100.2959, 0.3957],
                            [100.2991, 0.3974],
                            [100.3005, 0.3966],
                            [100.303, 0.3843],
                            [100.3116, 0.3778],
                            [100.3195, 0.3676],
                            [100.3256, 0.3665],
                            [100.3262, 0.3642],
                            [100.3232, 0.3609],
                            [100.3242, 0.3576],
                            [100.3333, 0.3521],
                            [100.328, 0.3438],
                            [100.3322, 0.338],
                            [100.3321, 0.3359],
                            [100.329, 0.3329],
                            [100.32, 0.3147],
                            [100.3101, 0.3057],
                            [100.3087, 0.3002],
                            [100.3153, 0.2881],
                            [100.3198, 0.2865],
                            [100.3158, 0.2744],
                            [100.3193, 0.2741],
                            [100.3321, 0.2527],
                            [100.3294, 0.2345],
                            [100.3325, 0.2275],
                            [100.3327, 0.2194],
                            [100.3366, 0.2108],
                            [100.3437, 0.2014],
                            [100.3515, 0.1776],
                            [100.3495, 0.1706],
                            [100.3292, 0.1511],
                            [100.324, 0.1367],
                            [100.3245, 0.1256],
                            [100.3208, 0.1186],
                            [100.3204, 0.1143],
                            [100.3209, 0.1112],
                            [100.324, 0.1075],
                            [100.3249, 0.102],
                            [100.3158, 0.0878],
                            [100.3178, 0.081],
                            [100.3274, 0.0637],
                            [100.3302, 0.0523],
                            [100.3376, 0.0428],
                            [100.3349, 0.0376],
                            [100.3279, 0.0344],
                            [100.3201, 0.0274],
                            [100.3123, 0.0022],
                            [100.3083, -0.0024],
                            [100.3016, -0.0067],
                            [100.2922, -0.0097],
                            [100.2773, -0.0099],
                            [100.2739, -0.0112],
                            [100.2688, -0.0173],
                            [100.2617, -0.0195],
                            [100.2601, -0.0225],
                            [100.2649, -0.0317],
                            [100.261, -0.0418],
                            [100.2614, -0.0536],
                            [100.2582, -0.0596],
                            [100.2513, -0.0646],
                            [100.2495, -0.0658],
                            [100.244, -0.0652],
                            [100.2368, -0.0625],
                            [100.1885, -0.0911],
                            [100.1877, -0.0932],
                            [100.1759, -0.0923],
                            [100.1646, -0.1018]
                        ]
                    ]
                ]
            }
        },
        {
            "type": "Feature",
            "properties": {
                "GID_2": "IDN.30.12_1",
                "GID_0": "IDN",
                "COUNTRY": "Indonesia",
                "GID_1": "IDN.30_1",
                "NAME_1": "SumateraBarat",
                "NL_NAME_1": "NA",
                "NAME_2": "PasamanBarat",
                "VARNAME_2": "NA",
                "NL_NAME_2": "NA",
                "TYPE_2": "Kabupaten",
                "ENGTYPE_2": "Regency",
                "CC_2": "1312",
                "HASC_2": "ID.SB.PB",
                "label": "Kabupaten Pasaman Barat",
                "slug": "kabupaten-pasaman-barat"
            },
            "geometry": {
                "type": "MultiPolygon",
                "coordinates": [
                    [
                        [
                            [99.7486, -0.1339],
                            [99.7587, -0.1157],
                            [99.7575, -0.0834],
                            [99.7635, -0.07],
                            [99.7623, -0.0633],
                            [99.7557, -0.0492],
                            [99.7403, -0.0294],
                            [99.7298, -0.0205],
                            [99.6912, 0.0022],
                            [99.6911, 0.0048],
                            [99.6849, 0.0078],
                            [99.683, 0.0133],
                            [99.6536, 0.0418],
                            [99.6171, 0.0659],
                            [99.4779, 0.1328],
                            [99.4334, 0.147],
                            [99.4233, 0.1471],
                            [99.4188, 0.151],
                            [99.4128, 0.1528],
                            [99.3983, 0.1512],
                            [99.3919, 0.1599],
                            [99.3895, 0.1712],
                            [99.3875, 0.173],
                            [99.3925, 0.1829],
                            [99.3924, 0.1865],
                            [99.3886, 0.1865],
                            [99.3855, 0.1888],
                            [99.3831, 0.1865],
                            [99.3792, 0.1901],
                            [99.3739, 0.1909],
                            [99.3717, 0.1955],
                            [99.3738, 0.1972],
                            [99.3766, 0.1969],
                            [99.3775, 0.2073],
                            [99.3637, 0.217],
                            [99.3621, 0.2155],
                            [99.3589, 0.2158],
                            [99.3586, 0.22],
                            [99.361, 0.2221],
                            [99.3618, 0.2261],
                            [99.3597, 0.2291],
                            [99.3368, 0.2375],
                            [99.3144, 0.2378],
                            [99.304, 0.2353],
                            [99.2971, 0.2288],
                            [99.2852, 0.2283],
                            [99.2842, 0.2246],
                            [99.2792, 0.2243],
                            [99.2785, 0.2222],
                            [99.2735, 0.2216],
                            [99.2715, 0.2194],
                            [99.2674, 0.2224],
                            [99.2639, 0.2151],
                            [99.2639, 0.2022],
                            [99.2587, 0.2058],
                            [99.2577, 0.2109],
                            [99.2545, 0.2107],
                            [99.2509, 0.2135],
                            [99.2497, 0.212],
                            [99.2491, 0.2141],
                            [99.2436, 0.2168],
                            [99.241, 0.2161],
                            [99.2394, 0.2134],
                            [99.2402, 0.2089],
                            [99.2383, 0.21],
                            [99.237, 0.2077],
                            [99.2326, 0.2154],
                            [99.2265, 0.2127],
                            [99.2247, 0.2134],
                            [99.2209, 0.2103],
                            [99.217, 0.2121],
                            [99.2151, 0.2156],
                            [99.212, 0.2173],
                            [99.2095, 0.2158],
                            [99.2049, 0.2254],
                            [99.2051, 0.2303],
                            [99.2035, 0.2335],
                            [99.1919, 0.2355],
                            [99.193, 0.2462],
                            [99.1916, 0.2524],
                            [99.1896, 0.2537],
                            [99.1812, 0.2519],
                            [99.1779, 0.2477],
                            [99.1772, 0.2428],
                            [99.1826, 0.2399],
                            [99.1777, 0.2356],
                            [99.1777, 0.231],
                            [99.1753, 0.2311],
                            [99.1692, 0.2263],
                            [99.1673, 0.2284],
                            [99.1747, 0.2408],
                            [99.1758, 0.2488],
                            [99.178, 0.2518],
                            [99.184, 0.2542],
                            [99.1946, 0.2714],
                            [99.1943, 0.2822],
                            [99.1998, 0.2896],
                            [99.2248, 0.3079],
                            [99.2367, 0.3227],
                            [99.2487, 0.3325],
                            [99.2655, 0.3372],
                            [99.2973, 0.3369],
                            [99.3146, 0.3335],
                            [99.3174, 0.3346],
                            [99.3341, 0.358],
                            [99.3498, 0.3863],
                            [99.3609, 0.4118],
                            [99.3661, 0.4314],
                            [99.3848, 0.4492],
                            [99.3883, 0.4553],
                            [99.3979, 0.4649],
                            [99.4046, 0.4871],
                            [99.4075, 0.491],
                            [99.4126, 0.4932],
                            [99.4291, 0.492],
                            [99.4373, 0.4957],
                            [99.4456, 0.5039],
                            [99.4459, 0.5064],
                            [99.458, 0.5149],
                            [99.4628, 0.5164],
                            [99.4687, 0.5236],
                            [99.4744, 0.5242],
                            [99.4773, 0.5266],
                            [99.4804, 0.5263],
                            [99.4896, 0.5296],
                            [99.4914, 0.5323],
                            [99.5038, 0.5395],
                            [99.5192, 0.552],
                            [99.5208, 0.5501],
                            [99.5198, 0.5457],
                            [99.5133, 0.5377],
                            [99.5188, 0.5353],
                            [99.5223, 0.5293],
                            [99.5305, 0.5218],
                            [99.5469, 0.5175],
                            [99.5593, 0.5106],
                            [99.573, 0.5095],
                            [99.5764, 0.5101],
                            [99.5834, 0.5157],
                            [99.5905, 0.516],
                            [99.5938, 0.5217],
                            [99.5978, 0.524],
                            [99.6083, 0.5248],
                            [99.6193, 0.5301],
                            [99.6303, 0.5427],
                            [99.6383, 0.547],
                            [99.6419, 0.5458],
                            [99.6494, 0.5402],
                            [99.6493, 0.5323],
                            [99.6511, 0.531],
                            [99.6555, 0.5312],
                            [99.6611, 0.5246],
                            [99.6654, 0.5162],
                            [99.6616, 0.5071],
                            [99.6654, 0.5017],
                            [99.6664, 0.4911],
                            [99.6741, 0.4843],
                            [99.6763, 0.476],
                            [99.6828, 0.4692],
                            [99.7008, 0.4681],
                            [99.7087, 0.4592],
                            [99.7201, 0.4524],
                            [99.7291, 0.4549],
                            [99.7351, 0.4641],
                            [99.739, 0.4748],
                            [99.7425, 0.4778],
                            [99.7514, 0.479],
                            [99.7577, 0.4775],
                            [99.7809, 0.4822],
                            [99.7874, 0.4816],
                            [99.8042, 0.4731],
                            [99.8064, 0.4714],
                            [99.8088, 0.4651],
                            [99.8203, 0.4605],
                            [99.8304, 0.4409],
                            [99.8305, 0.4279],
                            [99.8254, 0.417],
                            [99.8217, 0.4143],
                            [99.8152, 0.4134],
                            [99.8029, 0.4163],
                            [99.7947, 0.4123],
                            [99.7847, 0.4176],
                            [99.7782, 0.4187],
                            [99.7763, 0.416],
                            [99.7765, 0.4082],
                            [99.7744, 0.4015],
                            [99.7698, 0.3987],
                            [99.7501, 0.3973],
                            [99.7476, 0.3897],
                            [99.7435, 0.3856],
                            [99.7437, 0.3822],
                            [99.7466, 0.3798],
                            [99.7502, 0.379],
                            [99.762, 0.3702],
                            [99.7682, 0.3674],
                            [99.7701, 0.3627],
                            [99.7768, 0.3586],
                            [99.7728, 0.3493],
                            [99.759, 0.345],
                            [99.7524, 0.332],
                            [99.7547, 0.32],
                            [99.7657, 0.3107],
                            [99.7706, 0.3108],
                            [99.7818, 0.3205],
                            [99.7873, 0.3206],
                            [99.7887, 0.3186],
                            [99.7907, 0.3019],
                            [99.7952, 0.2983],
                            [99.8108, 0.2996],
                            [99.8219, 0.304],
                            [99.8249, 0.3077],
                            [99.8333, 0.3068],
                            [99.8477, 0.3029],
                            [99.8532, 0.298],
                            [99.855, 0.2942],
                            [99.8631, 0.2916],
                            [99.8668, 0.2916],
                            [99.8935, 0.304],
                            [99.9136, 0.304],
                            [99.9192, 0.3006],
                            [99.928, 0.2988],
                            [99.9288, 0.2972],
                            [99.9328, 0.2962],
                            [99.9335, 0.2937],
                            [99.9514, 0.2919],
                            [99.9555, 0.2867],
                            [99.9598, 0.287],
                            [99.9594, 0.2855],
                            [99.9631, 0.2848],
                            [99.9634, 0.2825],
                            [99.9676, 0.2812],
                            [99.968, 0.2776],
                            [99.9817, 0.2774],
                            [99.9902, 0.2829],
                            [99.9923, 0.2802],
                            [99.9983, 0.2772],
                            [100.0129, 0.275],
                            [100.0154, 0.2622],
                            [100.0271, 0.2567],
                            [100.0308, 0.2359],
                            [100.0295, 0.2263],
                            [100.0251, 0.2148],
                            [100.0138, 0.1963],
                            [100.0107, 0.1875],
                            [100.0119, 0.1765],
                            [100.0145, 0.1698],
                            [100.0137, 0.1632],
                            [100.0165, 0.1556],
                            [100.0108, 0.1269],
                            [100.0066, 0.116],
                            [100.0026, 0.1112],
                            [99.9999, 0.1023],
                            [99.9941, 0.0958],
                            [99.993, 0.0893],
                            [99.9943, 0.089],
                            [99.9868, 0.0838],
                            [99.9815, 0.0747],
                            [99.9668, 0.0647],
                            [99.9589, 0.0616],
                            [99.9617, 0.0508],
                            [99.9659, 0.0473],
                            [99.9758, 0.0301],
                            [99.9837, 0.0278],
                            [99.9981, 0.01],
                            [100.003, 0.0073],
                            [100.0107, 0.0065],
                            [100.0153, -0.0022],
                            [100.0152, -0.0071],
                            [100.0204, -0.0149],
                            [100.0253, -0.0154],
                            [100.0361, -0.0243],
                            [100.0402, -0.0246],
                            [100.0482, -0.0341],
                            [100.0466, -0.0387],
                            [100.0471, -0.0436],
                            [100.0434, -0.0422],
                            [100.0381, -0.0478],
                            [100.0357, -0.0467],
                            [100.0366, -0.0509],
                            [100.0344, -0.0515],
                            [100.0307, -0.0582],
                            [100.0315, -0.0631],
                            [100.0335, -0.0605],
                            [100.0361, -0.0635],
                            [100.0369, -0.0664],
                            [100.0336, -0.0679],
                            [100.0382, -0.0833],
                            [100.0363, -0.0837],
                            [100.0318, -0.0918],
                            [100.0226, -0.0937],
                            [100.0153, -0.0977],
                            [100.0162, -0.1035],
                            [100.0134, -0.119],
                            [100.0082, -0.1231],
                            [100.0045, -0.1285],
                            [100.0048, -0.1348],
                            [100.0013, -0.1386],
                            [100.0013, -0.1435],
                            [99.9946, -0.1425],
                            [99.992, -0.1395],
                            [99.9892, -0.139],
                            [99.9875, -0.1413],
                            [99.9879, -0.1452],
                            [99.9853, -0.1461],
                            [99.9809, -0.1387],
                            [99.9693, -0.1384],
                            [99.9639, -0.14],
                            [99.9609, -0.1435],
                            [99.951, -0.1486],
                            [99.9484, -0.1488],
                            [99.9438, -0.1453],
                            [99.9418, -0.1458],
                            [99.9399, -0.1505],
                            [99.933, -0.1486],
                            [99.9186, -0.156],
                            [99.9147, -0.1627],
                            [99.9082, -0.1583],
                            [99.9018, -0.1607],
                            [99.898, -0.1572],
                            [99.8849, -0.162],
                            [99.8727, -0.1595],
                            [99.8591, -0.163],
                            [99.8511, -0.1618],
                            [99.8483, -0.1631],
                            [99.8472, -0.1677],
                            [99.8453, -0.1685],
                            [99.8422, -0.1636],
                            [99.8378, -0.163],
                            [99.8331, -0.1657],
                            [99.8315, -0.1691],
                            [99.8195, -0.1684],
                            [99.8097, -0.1723],
                            [99.8067, -0.1759],
                            [99.8045, -0.1762],
                            [99.7679, -0.1709],
                            [99.7564, -0.1552],
                            [99.746, -0.1455],
                            [99.7486, -0.1339]
                        ]
                    ],
                    [
                        [
                            [99.36, 0.1238],
                            [99.3599, 0.1257],
                            [99.3619, 0.1267],
                            [99.3622, 0.1245],
                            [99.36, 0.1238]
                        ]
                    ],
                    [
                        [
                            [99.2939, 0.1384],
                            [99.2923, 0.1423],
                            [99.2937, 0.1444],
                            [99.2948, 0.1435],
                            [99.2939, 0.1384]
                        ]
                    ],
                    [
                        [
                            [99.2827, 0.1769],
                            [99.2839, 0.1736],
                            [99.2837, 0.1716],
                            [99.2795, 0.173],
                            [99.2783, 0.1761],
                            [99.279, 0.1781],
                            [99.2827, 0.1769]
                        ]
                    ],
                    [
                        [
                            [99.2996, 0.1861],
                            [99.2986, 0.1847],
                            [99.2967, 0.1848],
                            [99.2978, 0.1876],
                            [99.2999, 0.1877],
                            [99.2996, 0.1861]
                        ]
                    ],
                    [
                        [
                            [99.313, 0.1929],
                            [99.3119, 0.1843],
                            [99.31, 0.1825],
                            [99.3041, 0.1819],
                            [99.3022, 0.1869],
                            [99.3054, 0.1924],
                            [99.31, 0.195],
                            [99.313, 0.1929]
                        ]
                    ],
                    [
                        [
                            [99.2888, 0.2278],
                            [99.2914, 0.2269],
                            [99.2962, 0.2163],
                            [99.2962, 0.2125],
                            [99.2919, 0.2091],
                            [99.2812, 0.2136],
                            [99.2822, 0.2152],
                            [99.2796, 0.2196],
                            [99.2814, 0.2229],
                            [99.2856, 0.225],
                            [99.2862, 0.2276],
                            [99.2888, 0.2278]
                        ]
                    ],
                    [
                        [
                            [99.301, 0.2249],
                            [99.3016, 0.2244],
                            [99.3015, 0.2237],
                            [99.3005, 0.2239],
                            [99.301, 0.2249]
                        ]
                    ],
                    [
                        [
                            [99.1911, 0.2346],
                            [99.1915, 0.2347],
                            [99.1917, 0.2342],
                            [99.1913, 0.2342],
                            [99.1911, 0.2346]
                        ]
                    ],
                    [
                        [
                            [99.191, 0.2468],
                            [99.1912, 0.2474],
                            [99.1915, 0.2474],
                            [99.1915, 0.2467],
                            [99.191, 0.2468]
                        ]
                    ]
                ]
            }
        }
    ]
}
